H1 CPF 01  gfz 2022 11 04 13  8082 tandemx   
H2 1003001  6202 36605    2022 11 04 12 59 42 2022 11 09 00 00 42   120 1 1  0 0 0
H9
10 0 59888  26622.000000  0   -1108031.587   -532765.964  -6784744.911
10 0 59888  26742.000000  0   -1939118.845   -181456.788  -6614376.433
10 0 59888  26862.000000  0   -2730317.829    187191.236  -6328622.224
10 0 59888  26982.000000  0   -3467656.384    565970.647  -5932400.866
10 0 59888  27102.000000  0   -4138197.292    947253.208  -5432545.691
10 0 59888  27222.000000  0   -4730266.824   1323138.230  -4837697.859
10 0 59888  27342.000000  0   -5233663.437   1685612.107  -4158169.742
10 0 59888  27462.000000  0   -5639842.088   2026715.906  -3405775.813
10 0 59888  27582.000000  0   -5942069.346   2338715.833  -2593635.419
10 0 59888  27702.000000  0   -6135546.927   2614274.222  -1735949.034
10 0 59888  27822.000000  0   -6217499.049   2846617.061   -847750.883
10 0 59888  27942.000000  0   -6187220.915   3029693.628     55357.734
10 0 59888  28062.000000  0   -6046085.586   3158323.384    957489.648
10 0 59888  28182.000000  0   -5797507.617   3228326.515   1842760.020
10 0 59888  28302.000000  0   -5446865.468   3236634.561   2695575.149
10 0 59888  28422.000000  0   -5001384.816   3181378.267   3500915.174
10 0 59888  28542.000000  0   -4469985.581   3061950.039   4244605.788
10 0 59888  28662.000000  0   -3863096.225   2879039.320   4913571.256
10 0 59888  28782.000000  0   -3192442.191   2634641.505   5496064.367
10 0 59888  28902.000000  0   -2470812.336   2332040.512   5981871.586
10 0 59888  29022.000000  0   -1711808.016   1975764.263   6362487.952
10 0 59888  29142.000000  0    -929581.283   1571514.863   6631259.745
10 0 59888  29262.000000  0    -138569.002   1126075.173   6783493.262
10 0 59888  29382.000000  0     646773.127    647193.515   6816531.668
10 0 59888  29502.000000  0    1412233.971    143448.767   6729798.194
10 0 59888  29622.000000  0    2144102.854   -375902.516   6524805.747
10 0 59888  29742.000000  0    2829414.520   -901095.684   6205133.090
10 0 59888  29862.000000  0    3456180.123  -1422040.504   5776366.967
10 0 59888  29982.000000  0    4013600.697  -1928514.672   5246010.023
10 0 59888  30102.000000  0    4492257.380  -2410364.374   4623354.680
10 0 59888  30222.000000  0    4884276.747  -2857708.632   3919326.727
10 0 59888  30342.000000  0    5183468.493  -3261144.120   3146297.473
10 0 59888  30462.000000  0    5385430.346  -3611944.147   2317865.942
10 0 59888  30582.000000  0    5487616.436  -3902247.570   1448617.120
10 0 59888  30702.000000  0    5489369.264  -4125234.103    553860.494
10 0 59888  30822.000000  0    5391913.590  -4275279.533   -350646.830
10 0 59888  30942.000000  0    5198312.372  -4348088.612  -1248986.349
10 0 59888  31062.000000  0    4913385.043  -4340800.322  -2125367.414
10 0 59888  31182.000000  0    4543590.664  -4252063.742  -2964412.366
10 0 59888  31302.000000  0    4096879.717  -4082083.092  -3751431.115
10 0 59888  31422.000000  0    3582518.395  -3832630.652  -4472679.925
10 0 59888  31542.000000  0    3010890.680  -3507028.528  -5115598.851
10 0 59888  31662.000000  0    2393283.191  -3110100.014  -5669023.989
10 0 59888  31782.000000  0    1741659.227  -2648093.163  -6123370.827
10 0 59888  31902.000000  0    1068426.665  -2128579.102  -6470790.336
10 0 59888  32022.000000  0     386201.909  -1560324.256  -6705294.863
10 0 59888  32142.000000  0    -292423.837   -953140.735  -6822850.388
10 0 59888  32262.000000  0    -955111.679   -317718.481  -6821437.258
10 0 59888  32382.000000  0   -1589993.782    334558.856  -6701080.805
10 0 59888  32502.000000  0   -2185881.079    991812.606  -6463850.315
10 0 59888  32622.000000  0   -2732455.819   1641879.824  -6113827.347
10 0 59888  32742.000000  0   -3220447.551   2272532.828  -5657043.466
10 0 59888  32862.000000  0   -3641791.135   2871705.827  -5101387.970
10 0 59888  32982.000000  0   -3989764.351   3427725.018  -4456483.324
10 0 59888  33102.000000  0   -4259100.632   3929537.021  -3733528.321
10 0 59888  33222.000000  0   -4446073.529   4366931.339  -2945112.618
10 0 59888  33342.000000  0   -4548553.357   4730752.654  -2105004.381
10 0 59888  33462.000000  0   -4566033.070   5013096.722  -1227912.854
10 0 59888  33582.000000  0   -4499623.000   5207486.572   -329230.120
10 0 59888  33702.000000  0   -4352011.437   5309022.563    575245.123
10 0 59888  33822.000000  0   -4127393.229   5314501.607   1469591.996
10 0 59888  33942.000000  0   -3831367.985   5222503.360   2338058.355
10 0 59888  34062.000000  0   -3470808.314   5033438.202   3165347.858
10 0 59888  34182.000000  0   -3053702.873   4749558.507   3936896.155
10 0 59888  34302.000000  0   -2588980.046   4374933.451   4639131.716
10 0 59888  34422.000000  0   -2086315.226   3915387.121   5259716.931
10 0 59888  34542.000000  0   -1555927.149   3378401.535   5787764.260
10 0 59888  34662.000000  0   -1008367.582   2772987.666   6214023.507
10 0 59888  34782.000000  0    -454310.029   2109527.363   6531037.540
10 0 59888  34902.000000  0      95657.670   1399591.517   6733266.103
10 0 59888  35022.000000  0     631235.382    655735.478   6817177.769
10 0 59888  35142.000000  0    1142602.848   -108723.508   6781306.756
10 0 59888  35262.000000  0    1620598.655   -879943.691   6626277.667
10 0 59888  35382.000000  0    2056884.065  -1643809.118   6354795.640
10 0 59888  35502.000000  0    2444088.949  -2386187.266   5971602.796
10 0 59888  35622.000000  0    2775938.323  -3093191.735   5483400.834
10 0 59888  35742.000000  0    3047356.259  -3751444.390   4898739.209
10 0 59888  35862.000000  0    3254545.555  -4348332.333   4227871.266
10 0 59888  35982.000000  0    3395042.629  -4872255.928   3482578.792
10 0 59888  36102.000000  0    3467744.622  -5312860.759   2675966.500
10 0 59888  36222.000000  0    3472908.887  -5661249.214   1822230.641
10 0 59888  36342.000000  0    3412123.734  -5910165.971    936405.164
10 0 59888  36462.000000  0    3288251.725  -6054151.359     34090.887
10 0 59888  36582.000000  0    3105347.856  -6089661.683   -868826.131
10 0 59888  36702.000000  0    2868551.951  -6015150.798  -1756464.956
10 0 59888  36822.000000  0    2583958.881  -5831109.805  -2613236.569
10 0 59888  36942.000000  0    2258471.774  -5540067.148  -3424124.263
10 0 59888  37062.000000  0    1899639.867  -5146547.120  -4174951.335
10 0 59888  37182.000000  0    1515486.264  -4656987.864  -4852627.529
10 0 59888  37302.000000  0    1114332.041  -4079624.718  -5445371.546
10 0 59888  37422.000000  0     704619.504  -3424341.792  -5942907.960
10 0 59888  37542.000000  0     294737.767  -2702494.603  -6336634.883
10 0 59888  37662.000000  0    -107145.340  -1926708.439  -6619761.109
10 0 59888  37782.000000  0    -493241.713  -1110656.112  -6787412.399
10 0 59888  37902.000000  0    -856289.029   -268818.783  -6836706.881
10 0 59888  38022.000000  0   -1189683.246    583766.678  -6766798.426
10 0 59888  38142.000000  0   -1487595.851   1431769.167  -6578888.908
10 0 59888  38262.000000  0   -1745073.287   2259832.102  -6276209.568
10 0 59888  38382.000000  0   -1958118.187   3052844.787  -5863972.601
10 0 59888  38502.000000  0   -2123751.752   3796215.268  -5349291.211
10 0 59888  38622.000000  0   -2240055.264   4476138.428  -4741068.362
10 0 59888  38742.000000  0   -2306191.016   5079856.412  -4049853.986
10 0 59888  38862.000000  0   -2322400.754   5595904.236  -3287670.705
10 0 59888  38982.000000  0   -2289981.238   6014335.253  -2467812.464
10 0 59888  39102.000000  0   -2211237.820   6326923.883  -1604617.813
10 0 59888  39222.000000  0   -2089416.902   6527337.644   -713218.846
10 0 59888  39342.000000  0   -1928618.199   6611274.059    190725.788
10 0 59888  39462.000000  0   -1733688.881   6576562.238   1091311.971
10 0 59888  39582.000000  0   -1510100.939   6423218.795   1972681.929
10 0 59888  39702.000000  0   -1263814.950   6153456.644   2819313.025
10 0 59888  39822.000000  0   -1001135.412   5771650.741   3616297.939
10 0 59888  39942.000000  0    -728561.379   5284262.392   4349612.340
10 0 59888  40062.000000  0    -452635.486   4699722.187   5006366.949
10 0 59888  40182.000000  0    -179793.114   4028271.651   5575033.729
10 0 59888  40302.000000  0      83781.158   3281776.019   6045644.034
10 0 59888  40422.000000  0     332287.951   2473505.996   6409959.849
10 0 59888  40542.000000  0     560436.214   1617895.766   6661611.501
10 0 59888  40662.000000  0     763552.579    730281.245   6796203.408
10 0 59888  40782.000000  0     937674.668   -173376.126   6811385.112
10 0 59888  40902.000000  0    1079627.232  -1076775.112   6706890.503
10 0 59888  41022.000000  0    1187079.851  -1963568.644   6484542.902
10 0 59888  41142.000000  0    1258585.346  -2817659.379   6148225.719
10 0 59888  41262.000000  0    1293598.144  -3623493.792   5703818.754
10 0 59888  41382.000000  0    1292471.846  -4366347.911   5159099.383
10 0 59888  41502.000000  0    1256437.889  -5032599.425   4523612.291
10 0 59888  41622.000000  0    1187564.535  -5609984.843   3808509.050
10 0 59888  41742.000000  0    1088696.831  -6087835.673   3026355.408
10 0 59888  41862.000000  0     963378.729  -6457284.782   2190910.148
10 0 59888  41982.000000  0     815758.107  -6711440.129   1316881.439
10 0 59888  42102.000000  0     650478.078  -6845521.707    419663.527
10 0 59888  42222.000000  0     472556.765  -6856958.438   -484942.627
10 0 59888  42342.000000  0     287257.475  -6745437.696  -1381018.682
10 0 59888  42462.000000  0      99955.159  -6512907.785  -2252817.730
10 0 59888  42582.000000  0     -83998.088  -6163536.481  -3085047.140
10 0 59888  42702.000000  0    -259405.735  -5703626.704  -3863141.160
10 0 59888  42822.000000  0    -421354.456  -5141490.282  -4573517.451
10 0 59888  42942.000000  0    -565333.196  -4487284.189  -5203810.649
10 0 59888  43062.000000  0    -687341.157  -3752815.624  -5743080.665
99
